{
  "type": "FeatureCollection",
  "features": [
    {
      "type": "Feature",
      "properties": {
        "norad_id": 66174,
        "name": "HTV-X1",
        "group": "stations",
        "lat": -9.494791249739505,
        "lon": -75.0821932596934,
        "alt_km": 419.4835230724002,
        "timestamp": "2025-12-21T20:41:06.789765+00:00",
        "meta_object_name": "HTV-X1",
        "meta_object_id": "2025-241A",
        "meta_epoch": "2025-12-21T13:40:08.668128",
        "meta_mean_motion": 15.49703708,
        "meta_eccentricity": 0.00031656,
        "meta_inclination": 51.6324,
        "meta_ra_of_asc_node": 98.7522,
        "meta_arg_of_pericenter": 281.5679,
        "meta_mean_anomaly": 78.4955,
        "meta_ephemeris_type": 0,
        "meta_classification_type": "U",
        "meta_norad_cat_id": 66174,
        "meta_element_set_no": 999,
        "meta_rev_at_epoch": 51,
        "meta_bstar": 0.0001683656,
        "meta_mean_motion_dot": 9.066e-05,
        "meta_mean_motion_ddot": 0,
        "tle_line1": "1 66174U 25241A   25355.56954477  .00009066  00000+0  16837-3 0  9993",
        "tle_line2": "2 66174  51.6324  98.7522 0003165 281.5679  78.4955 15.49703708   511"
      },
      "geometry": {
        "type": "Point",
        "coordinates": [
          -75.0821932596934,
          -9.494791249739505
        ]
      }
    },
    {
      "type": "Feature",
      "properties": {
        "norad_id": 66515,
        "name": "SZ-21 MODULE",
        "group": "stations",
        "lat": -27.617179488591603,
        "lon": -75.93691410693049,
        "alt_km": 377.94933463299094,
        "timestamp": "2025-12-21T20:41:06.789774+00:00",
        "meta_object_name": "SZ-21 MODULE",
        "meta_object_id": "2025-246C",
        "meta_epoch": "2025-12-21T02:28:16.865472",
        "meta_mean_motion": 15.62895195,
        "meta_eccentricity": 0.00053926,
        "meta_inclination": 41.4772,
        "meta_ra_of_asc_node": 325.0132,
        "meta_arg_of_pericenter": 304.7401,
        "meta_mean_anomaly": 55.2931,
        "meta_ephemeris_type": 0,
        "meta_classification_type": "U",
        "meta_norad_cat_id": 66515,
        "meta_element_set_no": 999,
        "meta_rev_at_epoch": 575,
        "meta_bstar": 0.00023274036,
        "meta_mean_motion_dot": 0.00021377,
        "meta_mean_motion_ddot": 0,
        "tle_line1": "1 66515U 25246C   25355.10297298  .00021377  00000+0  23274-3 0  9990",
        "tle_line2": "2 66515  41.4772 325.0132 0005392 304.7401  55.2931 15.62895195  5757"
      },
      "geometry": {
        "type": "Point",
        "coordinates": [
          -75.93691410693049,
          -27.617179488591603
        ]
      }
    },
    {
      "type": "Feature",
      "properties": {
        "norad_id": 66645,
        "name": "SHENZHOU-22",
        "group": "stations",
        "lat": -36.115514232156954,
        "lon": -94.39894150630195,
        "alt_km": 397.0863041193188,
        "timestamp": "2025-12-21T20:41:06.789783+00:00",
        "meta_object_name": "SHENZHOU-22",
        "meta_object_id": "2025-272A",
        "meta_epoch": "2025-12-21T13:16:11.322912",
        "meta_mean_motion": 15.59533817,
        "meta_eccentricity": 0.0007788,
        "meta_inclination": 41.4687,
        "meta_ra_of_asc_node": 323.1886,
        "meta_arg_of_pericenter": 108.2472,
        "meta_mean_anomaly": 251.9215,
        "meta_ephemeris_type": 0,
        "meta_classification_type": "U",
        "meta_norad_cat_id": 66645,
        "meta_element_set_no": 999,
        "meta_rev_at_epoch": 26519,
        "meta_bstar": 0.00020086225,
        "meta_mean_motion_dot": 0.00016128,
        "meta_mean_motion_ddot": 0,
        "tle_line1": "1 66645U 25272A   25355.55290883  .00016128  00000+0  20086-3 0  9991",
        "tle_line2": "2 66645  41.4687 323.1886 0007788 108.2472 251.9215 15.59533817265199"
      },
      "geometry": {
        "type": "Point",
        "coordinates": [
          -94.39894150630195,
          -36.115514232156954
        ]
      }
    },
    {
      "type": "Feature",
      "properties": {
        "norad_id": 66664,
        "name": "SOYUZ-MS 28",
        "group": "stations",
        "lat": -9.494792604812972,
        "lon": -75.08219214785724,
        "alt_km": 419.4835231565112,
        "timestamp": "2025-12-21T20:41:06.789792+00:00",
        "meta_object_name": "SOYUZ-MS 28",
        "meta_object_id": "2025-275A",
        "meta_epoch": "2025-12-21T13:40:08.668128",
        "meta_mean_motion": 15.49703708,
        "meta_eccentricity": 0.00031656,
        "meta_inclination": 51.6324,
        "meta_ra_of_asc_node": 98.7522,
        "meta_arg_of_pericenter": 281.5679,
        "meta_mean_anomaly": 78.4955,
        "meta_ephemeris_type": 0,
        "meta_classification_type": "U",
        "meta_norad_cat_id": 66664,
        "meta_element_set_no": 999,
        "meta_rev_at_epoch": 128,
        "meta_bstar": 0.0001683656,
        "meta_mean_motion_dot": 9.066e-05,
        "meta_mean_motion_ddot": 0,
        "tle_line1": "1 66664U 25275A   25355.56954477  .00009066  00000+0  16837-3 0  9994",
        "tle_line2": "2 66664  51.6324  98.7522 0003165 281.5679  78.4955 15.49703708  1280"
      },
      "geometry": {
        "type": "Point",
        "coordinates": [
          -75.08219214785724,
          -9.494792604812972
        ]
      }
    },
    {
      "type": "Feature",
      "properties": {
        "norad_id": 66906,
        "name": "1998-067XS",
        "group": "stations",
        "lat": -50.608826577938295,
        "lon": -8.081980439288998,
        "alt_km": 416.380484599822,
        "timestamp": "2025-12-21T20:41:06.789801+00:00",
        "meta_object_name": "1998-067XS",
        "meta_object_id": "1998-067XS",
        "meta_epoch": "2025-12-21T11:50:07.455840",
        "meta_mean_motion": 15.51010585,
        "meta_eccentricity": 0.00029529,
        "meta_inclination": 51.6316,
        "meta_ra_of_asc_node": 98.9926,
        "meta_arg_of_pericenter": 243.0961,
        "meta_mean_anomaly": 116.9727,
        "meta_ephemeris_type": 0,
        "meta_classification_type": "U",
        "meta_norad_cat_id": 66906,
        "meta_element_set_no": 999,
        "meta_rev_at_epoch": 297,
        "meta_bstar": 0.00042361543,
        "meta_mean_motion_dot": 0.00024678,
        "meta_mean_motion_ddot": 0,
        "tle_line1": "1 66906U 98067XS  25355.49314185  .00024678  00000+0  42362-3 0  9998",
        "tle_line2": "2 66906  51.6316  98.9926 0002952 243.0961 116.9727 15.51010585  2979"
      },
      "geometry": {
        "type": "Point",
        "coordinates": [
          -8.081980439288998,
          -50.608826577938295
        ]
      }
    },
    {
      "type": "Feature",
      "properties": {
        "norad_id": 66907,
        "name": "1998-067XT",
        "group": "stations",
        "lat": -33.72012871339094,
        "lon": 65.12540357335983,
        "alt_km": 411.1259946848031,
        "timestamp": "2025-12-21T20:41:06.789810+00:00",
        "meta_object_name": "1998-067XT",
        "meta_object_id": "1998-067XT",
        "meta_epoch": "2025-12-21T11:36:33.971328",
        "meta_mean_motion": 15.52463027,
        "meta_eccentricity": 0.00038794,
        "meta_inclination": 51.6316,
        "meta_ra_of_asc_node": 98.9297,
        "meta_arg_of_pericenter": 279.7244,
        "meta_mean_anomaly": 80.3308,
        "meta_ephemeris_type": 0,
        "meta_classification_type": "U",
        "meta_norad_cat_id": 66907,
        "meta_element_set_no": 999,
        "meta_rev_at_epoch": 297,
        "meta_bstar": 0.00087766366,
        "meta_mean_motion_dot": 0.00054612,
        "meta_mean_motion_ddot": 0,
        "tle_line1": "1 66907U 98067XT  25355.48372652  .00054612  00000+0  87766-3 0  9999",
        "tle_line2": "2 66907  51.6316  98.9297 0003879 279.7244  80.3308 15.52463027  2973"
      },
      "geometry": {
        "type": "Point",
        "coordinates": [
          65.12540357335983,
          -33.72012871339094
        ]
      }
    },
    {
      "type": "Feature",
      "properties": {
        "norad_id": 66908,
        "name": "1998-067XU",
        "group": "stations",
        "lat": -30.37176812539118,
        "lon": 69.37201925936115,
        "alt_km": 410.84005567592067,
        "timestamp": "2025-12-21T20:41:06.789819+00:00",
        "meta_object_name": "1998-067XU",
        "meta_object_id": "1998-067XU",
        "meta_epoch": "2025-12-21T00:46:29.963136",
        "meta_mean_motion": 15.52510982,
        "meta_eccentricity": 0.00039042,
        "meta_inclination": 51.6311,
        "meta_ra_of_asc_node": 101.1653,
        "meta_arg_of_pericenter": 276.2494,
        "meta_mean_anomaly": 83.8051,
        "meta_ephemeris_type": 0,
        "meta_classification_type": "U",
        "meta_norad_cat_id": 66908,
        "meta_element_set_no": 999,
        "meta_rev_at_epoch": 290,
        "meta_bstar": 0.00080289362,
        "meta_mean_motion_dot": 0.00049977,
        "meta_mean_motion_ddot": 0,
        "tle_line1": "1 66908U 98067XU  25355.03229124  .00049977  00000+0  80289-3 0  9997",
        "tle_line2": "2 66908  51.6311 101.1653 0003904 276.2494  83.8051 15.52510982  2909"
      },
      "geometry": {
        "type": "Point",
        "coordinates": [
          69.37201925936115,
          -30.37176812539118
        ]
      }
    }
  ]
}